2023-091J               
1 57174U 23091J   26133.94809984  .00002111  00000+0  12083-3 0  9996
2 57174  97.5082 187.5342 0011674 265.2717  94.7181 15.13688554158455
CUBEBEL 2 (EU11S)       
1 57175U 23091K   26133.94997110  .00007490  00000+0  27398-3 0  9996
2 57175  97.5075 196.8805 0009014 228.4846 131.5620 15.28321700159074
SITRO-AIS 5 (KATYS)     
1 57176U 23091L   26133.90854662  .00007739  00000+0  28015-3 0  9990
2 57176  97.5083 197.5006 0010817 216.1660 143.8849 15.28638372159105
ZORKIY-2M 1             
1 57177U 23091M   26133.92850237  .00004320  00000+0  20090-3 0  9995
2 57177  97.5116 193.0107 0012229 230.9900 129.0247 15.20440102158792
CUBESX-HSE 3 (RS42S)    
1 57178U 23091N   26133.91997703  .00008758  00000+0  30081-3 0  9995
2 57178  97.5114 199.0955 0010491 205.4701 154.6024 15.30315541159183
MONITOR-3 (RS58S)       
1 57180U 23091Q   26133.93651465  .00006804  00000+0  25820-3 0  9997
2 57180  97.5107 197.1471 0011124 213.1827 146.8715 15.27125326159062
MONITOR-4 (RS57S)       
1 57182U 23091S   26133.91769880  .00007013  00000+0  26525-3 0  9994
2 57182  97.5101 197.0972 0011096 213.6338 146.4198 15.27222476159068
MONITOR-2 (RS39S)       
1 57184U 23091U   26133.92005731  .00003123  00000+0  15427-3 0  9992
2 57184  97.5098 192.4289 0010126 225.6382 134.4023 15.18578812158757
SVYATOBOR 1 (RS60S)     
1 57187U 23091X   26133.90243643  .00005743  00000+0  22600-3 0  9990
2 57187  97.5112 197.5429 0009032 203.6648 156.4176 15.26006184159081
HORS 1                  
1 57188U 23091Y   26133.95579698  .00006101  00000+0  23922-3 0  9995
2 57188  97.5092 197.3634 0008529 202.7904 157.2957 15.26102893159091
VIZARD-METEO (RS38S)    
1 57189U 23091Z   26133.93314595  .00011230  00000+0  33383-3 0  9998
2 57189  97.5111 202.7600 0007751 181.6018 178.5201 15.34898873159430
SITRO-AIS 6 (CHIRKIN)   
1 57192U 23091AC  26133.94129265  .00003869  00000+0  15660-3 0  9998
2 57192  97.5090 196.8302 0010957 219.6968 140.3469 15.25257607159066
SITRO-AIS 8 (ANOKHIN)   
1 57193U 23091AD  26133.91846790  .00008833  00000+0  29549-3 0  9992
2 57193  97.5079 198.9643 0010122 211.2659 148.7982 15.31173097159209
SITRO-AIS 7 (FARTUSHNIY)
1 57194U 23091AE  26133.93762382  .00003678  00000+0  15035-3 0  9996
2 57194  97.5087 196.6688 0010772 220.8447 139.1984 15.24963133159054
AVION KALUGA 650        
1 57195U 23091AF  26133.93322326  .00003494  00000+0  16545-3 0  9990
2 57195  97.5114 193.6542 0009378 222.8052 137.2454 15.19973313158826
HORS 2                  
1 57196U 23091AG  26133.92541370  .00009328  00000+0  31383-3 0  9991
2 57196  97.5110 200.5097 0008140 193.8394 166.2624 15.30988460159282
A-SEANSAT-PG1           
1 57197U 23091AH  26133.94651830  .00012075  00000+0  34939-3 0  9990
2 57197  97.5101 202.8283 0007538 189.3661 170.7443 15.35730500159455
SITRO-AIS 10 (BURDAEV)  
1 57199U 23091AK  26133.89462456  .00012822  00000+0  35303-3 0  9996
2 57199  97.5101 203.6517 0007138 182.9739 177.1464 15.37271775159491
SITRO-AIS 9 (SHCHUKIN)  
1 57201U 23091AM  26133.91059685  .00012838  00000+0  35860-3 0  9994
2 57201  97.5099 203.4238 0007339 183.7148 176.4043 15.36820050159484
UTMN 2 (RS27S)          
1 57203U 23091AP  26133.89126909  .00008295  00000+0  27778-3 0  9998
2 57203  97.5108 200.6579 0008157 189.7274 170.3810 15.31176518159291
SITRO-AIS 12 (SMIRENNIY)
1 57204U 23091AQ  26133.90762013  .00012858  00000+0  35592-3 0  9996
2 57204  97.5111 203.8667 0007143 177.6581 182.4698 15.37104780159500
SITRO-AIS 11 (SHEFFER)  
1 57208U 23091AU  26133.93014026  .00013587  00000+0  37122-3 0  9998
2 57208  97.5110 204.1154 0007082 177.3328 182.7955 15.37496985159528
H2SAT (HEINRICH HERTZ)  
1 57213U 23093A   26133.03567338  .00000000  00000+0  00000+0 0  9993
2 57213   0.0126 253.6510 0000667 239.0446 111.6410  1.00269416 10563
KUZGTU 1 (RS47S)        
1 57217U 23091AV  26133.94716130  .00007663  00000+0  27403-3 0  9993
2 57217  97.5088 198.0974 0010546 209.4663 150.5983 15.29045294159147
QIANKUN-1               
1 57422U 23103B   26133.50150047  .00110894  71429-5  13180-3 0  9993
2 57422  96.1623 180.7418 0027329 120.8761 239.5218 16.07700021161727
FENGYUN 3F              
1 57490U 23111A   26133.93940554  .00000025  00000+0  32229-4 0  9995
2 57490  98.6843 204.5837 0001246 114.5831 245.5476 14.19932802144001
HJ-2F                   
1 57519U 23116A   26133.93473538  .00004713  00000+0  21034-3 0  9994
2 57519  97.3850 139.7636 0009627 151.1573 209.0197 15.21818394153541
XRISM                   
1 57800U 23137A   26133.93569462  .00003067  00000+0  16790-3 0  9996
2 57800  31.0019 221.4168 0007672 338.2220  21.8091 15.12168589147674
METEOR-M2 4             
1 59051U 24039A   26133.99716303 -.00000010  00000+0  15009-4 0  9991
2 59051  98.6992  93.7294 0005912 269.6863  90.3637 14.22425906114409
