OBJECT_NAME,OBJECT_ID,EPOCH,MEAN_MOTION,ECCENTRICITY,INCLINATION,RA_OF_ASC_NODE,ARG_OF_PERICENTER,MEAN_ANOMALY,EPHEMERIS_TYPE,CLASSIFICATION_TYPE,NORAD_CAT_ID,ELEMENT_SET_NO,REV_AT_EPOCH,BSTAR,MEAN_MOTION_DOT,MEAN_MOTION_DDOT
2023-091J,2023-091J,2026-05-13T22:45:15.826176,15.13688554,.00116749,97.5082,187.5342,265.2717,94.7181,0,U,57174,999,15845,.12083022E-3,.2111E-4,0
CUBEBEL 2 (EU11S),2023-091K,2026-05-13T22:47:57.503040,15.28321700,.0009014,97.5075,196.8805,228.4846,131.5620,0,U,57175,999,15907,.2739804E-3,.749E-4,0
SITRO-AIS 5 (KATYS),2023-091L,2026-05-13T21:48:18.427968,15.28638372,.00108171,97.5083,197.5006,216.1660,143.8849,0,U,57176,999,15910,.28015198E-3,.7739E-4,0
ZORKIY-2M 1,2023-091M,2026-05-13T22:17:02.604768,15.20440102,.00122298,97.5116,193.0107,230.9900,129.0247,0,U,57177,999,15879,.20090349E-3,.432E-4,0
CUBESX-HSE 3 (RS42S),2023-091N,2026-05-13T22:04:46.015392,15.30315541,.00104917,97.5114,199.0955,205.4701,154.6024,0,U,57178,999,15918,.30080822E-3,.8758E-4,0
MONITOR-3 (RS58S),2023-091Q,2026-05-13T22:28:34.865760,15.27125326,.00111243,97.5107,197.1471,213.1827,146.8715,0,U,57180,999,15906,.2581977E-3,.6804E-4,0
MONITOR-4 (RS57S),2023-091S,2026-05-13T22:01:29.176320,15.27222476,.00110966,97.5101,197.0972,213.6338,146.4198,0,U,57182,999,15906,.26525313E-3,.7013E-4,0
MONITOR-2 (RS39S),2023-091U,2026-05-13T22:04:52.951584,15.18578812,.00101262,97.5098,192.4289,225.6382,134.4023,0,U,57184,999,15875,.15426643E-3,.3123E-4,0
SVYATOBOR 1 (RS60S),2023-091X,2026-05-13T21:39:30.507552,15.26006184,.00090327,97.5112,197.5429,203.6648,156.4176,0,U,57187,999,15908,.22599776E-3,.5743E-4,0
HORS 1,2023-091Y,2026-05-13T22:56:20.859072,15.26102893,.00085296,97.5092,197.3634,202.7904,157.2957,0,U,57188,999,15909,.2392214E-3,.6101E-4,0
VIZARD-METEO (RS38S),2023-091Z,2026-05-13T22:23:43.810080,15.34898873,.00077513,97.5111,202.7600,181.6018,178.5201,0,U,57189,999,15943,.33383324E-3,.1123E-3,0
SITRO-AIS 6 (CHIRKIN),2023-091AC,2026-05-13T22:35:27.684960,15.25257607,.00109579,97.5090,196.8302,219.6968,140.3469,0,U,57192,999,15906,.15659511E-3,.3869E-4,0
SITRO-AIS 8 (ANOKHIN),2023-091AD,2026-05-13T22:02:35.626560,15.31173097,.00101227,97.5079,198.9643,211.2659,148.7982,0,U,57193,999,15920,.29549407E-3,.8833E-4,0
SITRO-AIS 7 (FARTUSHNIY),2023-091AE,2026-05-13T22:30:10.698048,15.24963133,.00107723,97.5087,196.6688,220.8447,139.1984,0,U,57194,999,15905,.15034992E-3,.3678E-4,0
AVION KALUGA 650,2023-091AF,2026-05-13T22:23:50.489664,15.19973313,.00093782,97.5114,193.6542,222.8052,137.2454,0,U,57195,999,15882,.16545171E-3,.3494E-4,0
HORS 2,2023-091AG,2026-05-13T22:12:35.743680,15.30988460,.00081403,97.5110,200.5097,193.8394,166.2624,0,U,57196,999,15928,.31383114E-3,.9328E-4,0
A-SEANSAT-PG1,2023-091AH,2026-05-13T22:42:59.181120,15.35730500,.00075386,97.5101,202.8283,189.3661,170.7443,0,U,57197,999,15945,.34939422E-3,.12075E-3,0
SITRO-AIS 10 (BURDAEV),2023-091AK,2026-05-13T21:28:15.561984,15.37271775,.00071387,97.5101,203.6517,182.9739,177.1464,0,U,57199,999,15949,.35303054E-3,.12822E-3,0
SITRO-AIS 9 (SHCHUKIN),2023-091AM,2026-05-13T21:51:15.567840,15.36820050,.00073392,97.5099,203.4238,183.7148,176.4043,0,U,57201,999,15948,.35860458E-3,.12838E-3,0
UTMN 2 (RS27S),2023-091AP,2026-05-13T21:23:25.649376,15.31176518,.00081572,97.5108,200.6579,189.7274,170.3810,0,U,57203,999,15929,.27778338E-3,.8295E-4,0
SITRO-AIS 12 (SMIRENNIY),2023-091AQ,2026-05-13T21:46:58.379232,15.37104780,.00071438,97.5111,203.8667,177.6581,182.4698,0,U,57204,999,15950,.35592188E-3,.12858E-3,0
SITRO-AIS 11 (SHEFFER),2023-091AU,2026-05-13T22:19:24.118464,15.37496985,.00070828,97.5110,204.1154,177.3328,182.7955,0,U,57208,999,15952,.37122083E-3,.13587E-3,0
H2SAT (HEINRICH HERTZ),2023-093A,2026-05-13T00:51:22.180032,1.00269416,.00006677,0.0126,253.6510,239.0446,111.6410,0,U,57213,999,1056,0,0,0
KUZGTU 1 (RS47S),2023-091AV,2026-05-13T22:43:54.736320,15.29045294,.00105461,97.5088,198.0974,209.4663,150.5983,0,U,57217,999,15914,.27402755E-3,.7663E-4,0
QIANKUN-1,2023-103B,2026-05-13T12:02:09.640608,16.07700021,.00273299,96.1623,180.7418,120.8761,239.5218,0,U,57422,999,16172,.13179788E-3,.110894E-2,.7142875E-5
FENGYUN 3F,2023-111A,2026-05-13T22:32:44.638656,14.19932802,.0001246,98.6843,204.5837,114.5831,245.5476,0,U,57490,999,14400,.32228971E-4,.25E-6,0
HJ-2F,2023-116A,2026-05-13T22:26:01.136832,15.21818394,.00096271,97.3850,139.7636,151.1573,209.0197,0,U,57519,999,15354,.21033954E-3,.4713E-4,0
XRISM,2023-137A,2026-05-13T22:27:24.015168,15.12168589,.00076726,31.0019,221.4168,338.2220,21.8091,0,U,57800,999,14767,.16790139E-3,.3067E-4,0
METEOR-M2 4,2024-039A,2026-05-13T23:55:54.885792,14.22425906,.00059129,98.6992,93.7294,269.6863,90.3637,0,U,59051,999,11440,.15008794E-4,-.1E-6,0
